NORAD_CAT_ID,OBJECT_NAME,OBJECT_TYPE,EPOCH,MEAN_MOTION,ECCENTRICITY,INCLINATION,RA_OF_ASC_NODE,ARG_OF_PERICENTER,MEAN_ANOMALY,BSTAR,MEAN_MOTION_DOT,MEAN_MOTION_DDOT,TLE_LINE0,TLE_LINE1,TLE_LINE2,SEMIMAJOR_AXIS,PERIOD,APOGEE,PERIGEE,DECAYED
53846.0,STARLINK-4746,PAYLOAD,2023-02-03 19:53:26,15.08842537,0.0001298,53.2185,326.0769,97.7227,262.3913,0.00017502,2.499e-05,0.0,0 STARLINK-4746,1 53846U 22114AE  23034.82878016  .00002499  00000-0  17502-3 0  9990,2 53846  53.2185 326.0769 0001298  97.7227 262.3913 15.08842537 21865,6917.873,95.437,540.636,538.84,0.0
53846.0,STARLINK-4746,PAYLOAD,2023-02-04 03:50:22,15.08841201,0.0001265,53.2174,324.5898,89.8498,270.2639,0.00015698,2.211e-05,0.0,0 STARLINK-4746,1 53846U 22114AE  23035.15998139  .00002211  00000-0  15698-3 0  9992,2 53846  53.2174 324.5898 0001265  89.8498 270.2639 15.08841201 22451,6917.877,95.437,540.617,538.867,0.0
53846.0,STARLINK-4746,PAYLOAD,2023-02-04 22:54:59,15.08846817,0.000123,53.2181,321.0227,91.2431,268.8702,0.00043144,6.586e-05,0.0,0 STARLINK-4746,1 53846U 22114AE  23035.95486083  .00006586  00000-0  43144-3 0  9996,2 53846  53.2181 321.0227 0001230  91.2431 268.8702 15.08846817 22039,6917.86,95.437,540.575,538.874,0.0
53846.0,STARLINK-4746,PAYLOAD,2023-02-05 05:16:31,15.0888246,9.92e-05,53.2176,319.8325,81.6147,278.4958,0.0015334,0.00024229,0.0,0 STARLINK-4746,1 53846U 22114AE  23036.21981310  .00024229  00000-0  15334-2 0  9992,2 53846  53.2176 319.8325 0000992  81.6147 278.4958 15.08882460 22076,6917.751,95.435,540.302,538.929,0.0
53846.0,STARLINK-4746,PAYLOAD,2023-02-05 17:59:37,15.08846213,0.0001977,53.2179,317.4547,91.244,268.8778,9.8356e-05,1.278e-05,0.0,0 STARLINK-4746,1 53846U 22114AE  23036.74973826  .00001278  00000-0  98356-4 0  9999,2 53846  53.2179 317.4547 0001977  91.2440 268.8778 15.08846213 22154,6917.861,95.437,541.094,538.359,0.0
53846.0,STARLINK-4746,PAYLOAD,2023-02-06 01:56:33,15.08831943,0.0001158,53.217,315.9663,86.805,273.3075,-0.00017453,-3.064e-05,0.0,0 STARLINK-4746,1 53846U 22114AE  23037.08094230 -.00003064  00000-0 -17453-3 0  9995,2 53846  53.2170 315.9663 0001158  86.8050 273.3075 15.08831943 22206,6917.905,95.438,540.571,538.969,0.0
53846.0,STARLINK-4746,PAYLOAD,2023-02-06 17:50:24,15.08840413,0.000122,53.2176,312.9912,95.7308,264.3823,0.00028078,4.184e-05,0.0,0 STARLINK-4746,1 53846U 22114AE  23037.74334411  .00004184  00000-0  28078-3 0  9993,2 53846  53.2176 312.9912 0001220  95.7308 264.3823 15.08840413 22844,6917.879,95.438,540.588,538.9,0.0
53846.0,STARLINK-4746,PAYLOAD,2023-02-06 22:36:34,15.08856128,0.0001303,53.2173,312.1021,93.479,266.6351,0.00091798,0.00014358,0.0,0 STARLINK-4746,1 53846U 22114AE  23037.94206125  .00014358  00000-0  91798-3 0  9998,2 53846  53.2173 312.1021 0001303  93.4790 266.6351 15.08856128 22331,6917.831,95.437,540.597,538.795,0.0
53846.0,STARLINK-4746,PAYLOAD,2023-02-07 01:47:20,15.08865106,0.0001443,53.2176,311.5093,88.8092,271.3066,0.0013193,0.00020785,0.0,0 STARLINK-4746,1 53846U 22114AE  23038.07454073  .00020785  00000-0  13193-2 0  9993,2 53846  53.2176 311.5093 0001443  88.8092 271.3066 15.08865106 22897,6917.804,95.436,540.667,538.67,0.0
53846.0,STARLINK-4746,PAYLOAD,2023-02-07 22:27:21,15.08864029,0.0001333,53.2171,307.6422,100.7142,259.4001,0.0011023,0.0001731,0.0,0 STARLINK-4746,1 53846U 22114AE  23038.93566045  .00017310  00000-0  11023-2 0  9991,2 53846  53.2171 307.6422 0001333 100.7142 259.4001 15.08864029 22486,6917.807,95.436,540.594,538.75,0.0
53846.0,STARLINK-4746,PAYLOAD,2023-02-08 06:24:16,15.08875313,0.0001145,53.2161,306.1561,79.554,280.5582,0.0018066,0.00028609,0.0,0 STARLINK-4746,1 53846U 22114AE  23039.26685689  .00028609  00000-0  18066-2 0  9991,2 53846  53.2161 306.1561 0001145  79.5540 280.5582 15.08875313 23072,6917.772,95.435,540.43,538.845,0.0
53846.0,STARLINK-4746,PAYLOAD,2023-02-08 22:18:08,15.08839307,0.0001902,53.2186,303.182,39.1516,320.9614,0.0015434,0.0002436,0.0,0 STARLINK-4746,1 53846U 22114AE  23039.92926883  .00024360  00000-0  15434-2 0  9994,2 53846  53.2186 303.1820 0001902  39.1516 320.9614 15.08839307 23179,6917.883,95.438,541.063,538.432,0.0
53846.0,STARLINK-4746,PAYLOAD,2023-02-09 03:04:17,15.08858014,0.0001284,53.2173,302.2873,89.2582,270.8558,0.0022832,0.00036254,0.0,0 STARLINK-4746,1 53846U 22114AE  23040.12798325  .00036254  00000-0  22832-2 0  9991,2 53846  53.2173 302.2873 0001284  89.2582 270.8558 15.08858014 22664,6917.825,95.436,540.579,538.802,0.0
53846.0,STARLINK-4746,PAYLOAD,2023-02-09 20:33:33,15.08839719,0.0001666,53.2167,299.017,86.2194,273.8989,0.0017444,0.00027583,0.0,0 STARLINK-4746,1 53846U 22114AE  23040.85663200  .00027583  00000-0  17444-2 0  9992,2 53846  53.2167 299.0170 0001666  86.2194 273.8989 15.08839719 23315,6917.881,95.438,540.899,538.594,0.0
53846.0,STARLINK-4746,PAYLOAD,2023-02-10 02:55:05,15.0885958,0.0001261,53.2169,297.8278,58.2857,301.8258,0.002021,0.0003204,0.0,0 STARLINK-4746,1 53846U 22114AE  23041.12159018  .00032040  00000-0  20210-2 0  9999,2 53846  53.2169 297.8278 0001261  58.2857 301.8258 15.08859580 23351,6917.821,95.436,540.558,538.813,0.0
53846.0,STARLINK-4746,PAYLOAD,2023-02-10 23:35:05,15.08860093,0.000108,53.2163,293.9614,68.3102,291.8005,0.0013359,0.00021048,0.0,0 STARLINK-4746,1 53846U 22114AE  23041.98270722  .00021048  00000-0  13359-2 0  9991,2 53846  53.2163 293.9614 0001080  68.3102 291.8005 15.08860093 22943,6917.819,95.436,540.431,538.937,0.0
53846.0,STARLINK-4746,PAYLOAD,2023-02-11 17:04:20,15.0883823,5.4e-05,53.2164,290.6889,79.235,280.8703,0.0013062,0.0002056,0.0,0 STARLINK-4746,1 53846U 22114AE  23042.71135167  .00020560  00000-0  13062-2 0  9995,2 53846  53.2164 290.6889 0000540  79.2350 280.8703 15.08838230 23591,6917.886,95.438,540.124,539.377,0.0
53846.0,STARLINK-4746,PAYLOAD,2023-02-11 23:25:53,15.08844575,6.64e-05,53.2168,289.5016,87.0242,273.0826,0.0007924,0.00012347,0.0,0 STARLINK-4746,1 53846U 22114AE  23042.97631083  .00012347  00000-0  79240-3 0  9996,2 53846  53.2168 289.5016 0000664  87.0242 273.0826 15.08844575 23092,6917.866,95.437,540.191,539.272,0.0
53846.0,STARLINK-4746,PAYLOAD,2023-02-12 08:58:11,15.08842381,9.04e-05,53.2158,287.7168,82.1087,278.0007,0.00052908,8.143e-05,0.0,0 STARLINK-4746,1 53846U 22114AE  23043.37374968  .00008143  00000-0  52908-3 0  9998,2 53846  53.2158 287.7168 0000904  82.1087 278.0007 15.08842381 23694,6917.873,95.437,540.363,539.113,0.0
53846.0,STARLINK-4746,PAYLOAD,2023-02-13 00:52:04,15.08822347,0.0001644,53.2165,284.7439,85.2071,274.9108,4.6065e-05,4.45e-06,0.0,0 STARLINK-4746,1 53846U 22114AE  23044.03616137  .00000445  00000-0  46065-4 0  9994,2 53846  53.2165 284.7439 0001644  85.2071 274.9108 15.08822347 23258,6917.934,95.439,540.937,538.662,0.0
53846.0,STARLINK-4746,PAYLOAD,2023-02-13 08:49:00,15.08827196,0.0001689,53.2167,283.2576,87.2397,272.8789,-4.0519e-05,-9.33e-06,0.0,0 STARLINK-4746,1 53846U 22114AE  23044.36736318 -.00000933  00000-0 -40519-4 0  9996,2 53846  53.2167 283.2576 0001689  87.2397 272.8789 15.08827196 23842,6917.92,95.438,540.953,538.616,0.0
53846.0,STARLINK-4746,PAYLOAD,2023-02-13 16:45:55,15.08836595,0.0001057,53.2161,281.7702,93.7409,266.3704,9.9515e-05,1.296e-05,0.0,0 STARLINK-4746,1 53846U 22114AE  23044.69856169  .00001296  00000-0  99515-4 0  9990,2 53846  53.2161 281.7702 0001057  93.7409 266.3704 15.08836595 23359,6917.891,95.438,540.487,539.025,0.0
53846.0,STARLINK-4746,PAYLOAD,2023-02-14 02:18:14,15.08851833,0.0001121,53.2158,279.9853,90.441,269.6711,0.00042665,6.511e-05,0.0,0 STARLINK-4746,1 53846U 22114AE  23045.09599580  .00006511  00000-0  42665-3 0  9994,2 53846  53.2158 279.9853 0001121  90.4410 269.6711 15.08851833 23412,6917.844,95.437,540.485,538.934,0.0
53846.0,STARLINK-4746,PAYLOAD,2023-02-14 08:39:47,15.08837725,0.000175,53.2134,278.7951,81.0954,279.0236,0.00015637,2.201e-05,0.0,0 STARLINK-4746,1 53846U 22114AE  23045.36096353  .00002201  00000-0  15637-3 0  9995,2 53846  53.2134 278.7951 0001750  81.0954 279.0236 15.08837725 23454,6917.887,95.438,540.963,538.542,0.0
53846.0,STARLINK-4746,PAYLOAD,2023-02-14 15:01:19,15.08836174,0.0001801,53.2147,277.6046,80.6279,279.4916,0.00021042,3.062e-05,0.0,0 STARLINK-4746,1 53846U 22114AE  23045.62592520  .00003062  00000-0  21042-3 0  9994,2 53846  53.2147 277.6046 0001801  80.6279 279.4916 15.08836174 24034,6917.892,95.438,541.003,538.511,0.0
53846.0,STARLINK-4746,PAYLOAD,2023-02-15 08:30:34,15.08846298,0.0001352,53.2162,274.337,80.2914,279.823,0.00019193,2.768e-05,0.0,0 STARLINK-4746,1 53846U 22114AE  23046.35456047  .00002768  00000-0  19193-3 0  9994,2 53846  53.2162 274.3370 0001352  80.2914 279.8230 15.08846298 24141,6917.861,95.437,540.661,538.791,0.0
53846.0,STARLINK-4746,PAYLOAD,2023-02-15 21:13:38,15.08858047,9.89e-05,53.2153,271.9557,95.3971,264.7134,0.00034231,5.167e-05,0.0,0 STARLINK-4746,1 53846U 22114AE  23046.88447311  .00005167  00000-0  34231-3 0  9992,2 53846  53.2153 271.9557 0000989  95.3971 264.7134 15.08858047 23685,6917.825,95.436,540.374,539.006,0.0
53846.0,STARLINK-4746,PAYLOAD,2023-02-16 08:21:20,15.08851911,0.0001213,53.2152,269.876,60.6599,299.4514,0.00021189,3.087e-05,0.0,0 STARLINK-4746,1 53846U 22114AE  23047.34815477  .00003087  00000-0  21189-3 0  9993,2 53846  53.2152 269.8760 0001213  60.6599 299.4514 15.08851911 23756,6917.844,95.437,540.548,538.87,0.0
53846.0,STARLINK-4746,PAYLOAD,2023-02-16 14:42:53,15.08836767,0.000141,53.2144,268.6861,73.8242,286.2905,9.851e-06,-1.31e-06,0.0,0 STARLINK-4746,1 53846U 22114AE  23047.61312189 -.00000131  00000-0  98510-5 0  9997,2 53846  53.2144 268.6861 0001410  73.8242 286.2905 15.08836767 23790,6917.89,95.438,540.731,538.78,0.0
53846.0,STARLINK-4746,PAYLOAD,2023-02-16 17:53:40,15.08836471,0.0001379,53.2149,268.0924,66.5752,293.5385,-8.7024e-06,-4.26e-06,0.0,0 STARLINK-4746,1 53846U 22114AE  23047.74560189 -.00000426  00000-0 -87024-5 0  9992,2 53846  53.2149 268.0924 0001379  66.5752 293.5385 15.08836471 24356,6917.891,95.438,540.71,538.802,0.0
